{
	"type": "FeatureCollection",
	"features": [
		{
			"type": "Feature",
			"geometry": {
				"type": "LineString",
				"coordinates": [
					[
						-92.38342,
						33.571845
					],
					[
						-91.860753,
						33.114451
					],
					[
						-91.855987,
						33.108182
					],
					[
						-91.661836,
						32.341237
					],
					[
						-91.658739,
						32.334014
					],
					[
						-91.346649,
						31.907338
					],
					[
						-91.340358,
						31.902424
					],
					[
						-90.427509,
						31.654088
					],
					[
						-90.418647,
						31.652733
					],
					[
						-88.20442,
						31.555663
					]
				]
			},
			"properties": {
				"id": "polyline690",
				"kind": "boundary"
			}
		},
		{
			"type": "Feature",
			"geometry": {
				"type": "LineString",
				"coordinates": [
					[
						-92.352821,
						32.994321
					],
					[
						-91.862592,
						33.109486
					],
					[
						-91.85419,
						33.109403
					],
					[
						-91.529101,
						32.916091
					],
					[
						-91.523666,
						32.91028
					],
					[
						-91.39838,
						32.659776
					],
					[
						-91.395656,
						32.652465
					],
					[
						-91.420273,
						32.367168
					],
					[
						-91.421898,
						32.359404
					],
					[
						-91.520625,
						32.151104
					],
					[
						-91.528435,
						32.147645
					],
					[
						-92.05648,
						31.993031
					]
				]
			},
			"properties": {
				"id": "polyline692",
				"kind": "boundary"
			}
		},
		{
			"type": "Feature",
			"geometry": {
				"type": "LineString",
				"coordinates": [
					[
						-90.011052,
						31.690976
					],
					[
						-89.927569,
						32.594224
					],
					[
						-89.979253,
						33.081411
					],
					[
						-89.881152,
						33.840427
					],
					[
						-90.427774,
						33.860351
					],
					[
						-90.433194,
						33.856597
					],
					[
						-90.557561,
						33.291918
					],
					[
						-91.733841,
						32.642069
					]
				]
			},
			"properties": {
				"id": "path5124",
				"kind": "boundary"
			}
		},
		{
			"type": "Feature",
			"geometry": {
				"type": "LineString",
				"coordinates": [
					[
						-91.660679,
						32.336667
					],
					[
						-92.261156,
						32.366211
					],
					[
						-92.268763,
						32.362304
					],
					[
						-92.444853,
						32.235139
					]
				]
			},
			"properties": {
				"id": "path5126",
				"kind": "boundary"
			}
		},
		{
			"type": "Feature",
			"geometry": {
				"type": "LineString",
				"coordinates": [
					[
						-90.254715,
						33.861275
					],
					[
						-90.224977,
						34.4022
					]
				]
			},
			"properties": {
				"id": "path5158",
				"kind": "boundary"
			}
		},
		{
			"type": "Feature",
			"geometry": {
				"type": "LineString",
				"coordinates": [
					[
						-90.432331,
						33.860517
					],
					[
						-91.173842,
						34.206667
					]
				]
			},
			"properties": {
				"id": "path5160",
				"kind": "boundary"
			}
		},
		{
			"type": "Feature",
			"geometry": {
				"type": "LineString",
				"coordinates": [
					[
						-90.977162,
						31.761779
					],
					[
						-91.521821,
						31.106361
					]
				]
			},
			"properties": {
				"id": "path5162",
				"kind": "boundary"
			}
		},
		{
			"type": "Feature",
			"geometry": {
				"type": "LineString",
				"coordinates": [
					[
						-90.480507,
						32.822592
					],
					[
						-89.880199,
						32.79158
					],
					[
						-89.872252,
						32.78926
					],
					[
						-89.510615,
						32.404037
					],
					[
						-89.507732,
						32.39769
					],
					[
						-89.781116,
						31.930389
					],
					[
						-89.786267,
						31.92465
					],
					[
						-90.341928,
						31.945628
					],
					[
						-90.349224,
						31.948897
					],
					[
						-90.709515,
						32.345091
					],
					[
						-90.707094,
						32.352345
					],
					[
						-90.480507,
						32.822592
					]
				]
			},
			"properties": {
				"id": "polyline678",
				"kind": "boundary"
			}
		},
		{
			"type": "Feature",
			"geometry": {
				"type": "LineString",
				"coordinates": [
					[
						-89.936123,
						33.366521
					],
					[
						-88.67437,
						33.367518
					]
				]
			},
			"properties": {
				"id": "path12271",
				"kind": "boundary"
			}
		},
		{
			"type": "Feature",
			"geometry": {
				"type": "LineString",
				"coordinates": [
					[
						-89.476015,
						31.595395
					],
					[
						-89.605742,
						31.411145
					]
				]
			},
			"properties": {
				"id": "path1132",
				"kind": "boundary"
			}
		},
		{
			"type": "Feature",
			"geometry": {
				"type": "LineString",
				"coordinates": [
					[
						-90.346404,
						31.945797
					],
					[
						-90.330013,
						31.965457
					],
					[
						-90.323743,
						31.970491
					],
					[
						-90.068621,
						31.961519
					],
					[
						-90.063871,
						31.958382
					],
					[
						-90.069789,
						31.939105
					]
				]
			},
			"properties": {
				"id": "path1134",
				"kind": "boundary"
			}
		},
		{
			"type": "Feature",
			"geometry": {
				"type": "LineString",
				"coordinates": [
					[
						-90.615954,
						32.539047
					],
					[
						-90.601348,
						32.51947
					],
					[
						-90.600829,
						32.512435
					],
					[
						-90.661396,
						32.377613
					],
					[
						-90.669631,
						32.374589
					],
					[
						-90.700275,
						32.365804
					]
				]
			},
			"properties": {
				"id": "path1136",
				"kind": "boundary"
			}
		},
		{
			"type": "Feature",
			"geometry": {
				"type": "LineString",
				"coordinates": [
					[
						-91.409499,
						32.591011
					],
					[
						-91.436756,
						32.587344
					],
					[
						-91.445211,
						32.585605
					],
					[
						-91.459676,
						32.458943
					],
					[
						-91.460111,
						32.451337
					],
					[
						-91.425035,
						32.445822
					]
				]
			},
			"properties": {
				"id": "path1138",
				"kind": "boundary"
			}
		},
		{
			"type": "Feature",
			"geometry": {
				"type": "LineString",
				"coordinates": [
					[
						-90.173038,
						32.806352
					],
					[
						-90.172747,
						32.790521
					],
					[
						-90.177634,
						32.787172
					],
					[
						-90.350448,
						32.79612
					],
					[
						-90.356644,
						32.800205
					],
					[
						-90.364399,
						32.814585
					]
				]
			},
			"properties": {
				"id": "path1144",
				"kind": "boundary"
			}
		},
		{
			"type": "Feature",
			"geometry": {
				"type": "LineString",
				"coordinates": [
					[
						-89.727413,
						32.03007
					],
					[
						-89.74046,
						32.050493
					],
					[
						-89.737223,
						32.057584
					],
					[
						-89.663449,
						32.178844
					],
					[
						-89.658266,
						32.183601
					],
					[
						-89.6385,
						32.175264
					]
				]
			},
			"properties": {
				"id": "path1146",
				"kind": "boundary"
			}
		},
		{
			"type": "Feature",
			"geometry": {
				"type": "LineString",
				"coordinates": [
					[
						-89.54917,
						32.330652
					],
					[
						-89.566048,
						32.336126
					],
					[
						-89.573681,
						32.339542
					],
					[
						-89.640325,
						32.509891
					],
					[
						-89.636157,
						32.512056
					],
					[
						-89.608645,
						32.507838
					]
				]
			},
			"properties": {
				"id": "path1148",
				"kind": "boundary"
			}
		},
		{
			"type": "Feature",
			"geometry": {
				"type": "LineString",
				"coordinates": [
					[
						-91.667086,
						32.9969
					],
					[
						-91.68157,
						32.967269
					],
					[
						-91.563125,
						32.897321
					],
					[
						-91.525501,
						32.91395
					]
				]
			},
			"properties": {
				"id": "path1140",
				"kind": "boundary"
			}
		}
	]
}
